{
  "type": "FeatureCollection",
  "features": [
    {
      "type": "Feature",
      "properties": {
        "norad_id": 66525,
        "name": "STARLINK-35975",
        "group": "last-30-days",
        "lat": -21.84344559538269,
        "lon": -106.6044085111201,
        "alt_km": 438.0494221430936,
        "timestamp": "2025-12-13T18:50:03.172271+00:00",
        "meta_object_name": "STARLINK-35975",
        "meta_object_id": "2025-265K",
        "meta_epoch": "2025-12-13T06:00:02.000160",
        "meta_mean_motion": 15.45672217,
        "meta_eccentricity": 0.00012543,
        "meta_inclination": 43.0007,
        "meta_ra_of_asc_node": 51.0178,
        "meta_arg_of_pericenter": 281.7556,
        "meta_mean_anomaly": 194.535,
        "meta_ephemeris_type": 0,
        "meta_classification_type": "U",
        "meta_norad_cat_id": 66525,
        "meta_element_set_no": 999,
        "meta_rev_at_epoch": 507,
        "meta_bstar": -0.046732752,
        "meta_mean_motion_dot": -0.02052905,
        "meta_mean_motion_ddot": 0,
        "tle_line1": "1 66525U 25265K   25347.25002315 -.02052905  00000+0 -46733-1 0  9991",
        "tle_line2": "2 66525  43.0007  51.0178 0001254 281.7556 194.5350 15.45672217  5077"
      },
      "geometry": {
        "type": "Point",
        "coordinates": [
          -106.6044085111201,
          -21.84344559538269
        ]
      }
    },
    {
      "type": "Feature",
      "properties": {
        "norad_id": 66526,
        "name": "STARLINK-35932",
        "group": "last-30-days",
        "lat": -34.79658458178514,
        "lon": -83.91706180577096,
        "alt_km": 415.77538688705135,
        "timestamp": "2025-12-13T18:50:03.172281+00:00",
        "meta_object_name": "STARLINK-35932",
        "meta_object_id": "2025-265L",
        "meta_epoch": "2025-12-13T05:27:07.125120",
        "meta_mean_motion": 15.50726312,
        "meta_eccentricity": 0.00021082,
        "meta_inclination": 43.0002,
        "meta_ra_of_asc_node": 51.1228,
        "meta_arg_of_pericenter": 220.0672,
        "meta_mean_anomaly": 140.0033,
        "meta_ephemeris_type": 0,
        "meta_classification_type": "U",
        "meta_norad_cat_id": 66526,
        "meta_element_set_no": 999,
        "meta_rev_at_epoch": 383,
        "meta_bstar": 0.0022279534,
        "meta_mean_motion_dot": 0.00133312,
        "meta_mean_motion_ddot": 0,
        "tle_line1": "1 66526U 25265L   25347.22716580  .00133312  00000+0  22280-2 0  9995",
        "tle_line2": "2 66526  43.0002  51.1228 0002108 220.0672 140.0033 15.50726312  3832"
      },
      "geometry": {
        "type": "Point",
        "coordinates": [
          -83.91706180577096,
          -34.79658458178514
        ]
      }
    },
    {
      "type": "Feature",
      "properties": {
        "norad_id": 66527,
        "name": "STARLINK-35935",
        "group": "last-30-days",
        "lat": -35.565854252090475,
        "lon": -82.03041325474847,
        "alt_km": 415.56445129268195,
        "timestamp": "2025-12-13T18:50:03.172291+00:00",
        "meta_object_name": "STARLINK-35935",
        "meta_object_id": "2025-265M",
        "meta_epoch": "2025-12-13T05:26:38.429088",
        "meta_mean_motion": 15.50657298,
        "meta_eccentricity": 0.00026181,
        "meta_inclination": 43,
        "meta_ra_of_asc_node": 51.1205,
        "meta_arg_of_pericenter": 241.691,
        "meta_mean_anomaly": 118.3686,
        "meta_ephemeris_type": 0,
        "meta_classification_type": "U",
        "meta_norad_cat_id": 66527,
        "meta_element_set_no": 999,
        "meta_rev_at_epoch": 383,
        "meta_bstar": 0.0026952189,
        "meta_mean_motion_dot": 0.00161536,
        "meta_mean_motion_ddot": 0,
        "tle_line1": "1 66527U 25265M   25347.22683367  .00161536  00000+0  26952-2 0  9991",
        "tle_line2": "2 66527  43.0000  51.1205 0002618 241.6910 118.3686 15.50657298  3834"
      },
      "geometry": {
        "type": "Point",
        "coordinates": [
          -82.03041325474847,
          -35.565854252090475
        ]
      }
    },
    {
      "type": "Feature",
      "properties": {
        "norad_id": 66528,
        "name": "STARLINK-35928",
        "group": "last-30-days",
        "lat": -36.4196482612329,
        "lon": -79.80088609361945,
        "alt_km": 416.37600487118016,
        "timestamp": "2025-12-13T18:50:03.172301+00:00",
        "meta_object_name": "STARLINK-35928",
        "meta_object_id": "2025-265N",
        "meta_epoch": "2025-12-13T05:26:07.500480",
        "meta_mean_motion": 15.50677627,
        "meta_eccentricity": 0.00016186,
        "meta_inclination": 43.0003,
        "meta_ra_of_asc_node": 51.1174,
        "meta_arg_of_pericenter": 249.0032,
        "meta_mean_anomaly": 111.0655,
        "meta_ephemeris_type": 0,
        "meta_classification_type": "U",
        "meta_norad_cat_id": 66528,
        "meta_element_set_no": 999,
        "meta_rev_at_epoch": 383,
        "meta_bstar": 0.0019617765,
        "meta_mean_motion_dot": 0.00116891,
        "meta_mean_motion_ddot": 0,
        "tle_line1": "1 66528U 25265N   25347.22647570  .00116891  00000+0  19618-2 0  9993",
        "tle_line2": "2 66528  43.0003  51.1174 0001618 249.0032 111.0655 15.50677627  3833"
      },
      "geometry": {
        "type": "Point",
        "coordinates": [
          -79.80088609361945,
          -36.4196482612329
        ]
      }
    },
    {
      "type": "Feature",
      "properties": {
        "norad_id": 66529,
        "name": "STARLINK-35933",
        "group": "last-30-days",
        "lat": 1.1284804510307147,
        "lon": -133.2093376344238,
        "alt_km": 443.89447917025063,
        "timestamp": "2025-12-13T18:50:03.172311+00:00",
        "meta_object_name": "STARLINK-35933",
        "meta_object_id": "2025-265P",
        "meta_epoch": "2025-12-13T06:00:02.000160",
        "meta_mean_motion": 15.40738784,
        "meta_eccentricity": 0.0001325,
        "meta_inclination": 43.0007,
        "meta_ra_of_asc_node": 51.0838,
        "meta_arg_of_pericenter": 252.8187,
        "meta_mean_anomaly": 196.1113,
        "meta_ephemeris_type": 0,
        "meta_classification_type": "U",
        "meta_norad_cat_id": 66529,
        "meta_element_set_no": 999,
        "meta_rev_at_epoch": 507,
        "meta_bstar": -0.0041295528,
        "meta_mean_motion_dot": -0.00169252,
        "meta_mean_motion_ddot": 0,
        "tle_line1": "1 66529U 25265P   25347.25002315 -.00169252  00000+0 -41296-2 0  9997",
        "tle_line2": "2 66529  43.0007  51.0838 0001325 252.8187 196.1113 15.40738784  5074"
      },
      "geometry": {
        "type": "Point",
        "coordinates": [
          -133.2093376344238,
          1.1284804510307147
        ]
      }
    },
    {
      "type": "Feature",
      "properties": {
        "norad_id": 66530,
        "name": "STARLINK-35961",
        "group": "last-30-days",
        "lat": -15.603956690309639,
        "lon": -114.6184987593377,
        "alt_km": 446.4649176288176,
        "timestamp": "2025-12-13T18:50:03.172324+00:00",
        "meta_object_name": "STARLINK-35961",
        "meta_object_id": "2025-265Q",
        "meta_epoch": "2025-12-13T06:00:02.000160",
        "meta_mean_motion": 15.43055059,
        "meta_eccentricity": 0.00010147,
        "meta_inclination": 43.0003,
        "meta_ra_of_asc_node": 51.0286,
        "meta_arg_of_pericenter": 291.121,
        "meta_mean_anomaly": 180.6632,
        "meta_ephemeris_type": 0,
        "meta_classification_type": "U",
        "meta_norad_cat_id": 66530,
        "meta_element_set_no": 999,
        "meta_rev_at_epoch": 507,
        "meta_bstar": -0.057596095,
        "meta_mean_motion_dot": -0.02323287,
        "meta_mean_motion_ddot": 0,
        "tle_line1": "1 66530U 25265Q   25347.25002315 -.02323287  00000+0 -57596-1 0  9990",
        "tle_line2": "2 66530  43.0003  51.0286 0001014 291.1210 180.6632 15.43055059  5071"
      },
      "geometry": {
        "type": "Point",
        "coordinates": [
          -114.6184987593377,
          -15.603956690309639
        ]
      }
    },
    {
      "type": "Feature",
      "properties": {
        "norad_id": 66531,
        "name": "STARLINK-35960",
        "group": "last-30-days",
        "lat": -28.963152768088847,
        "lon": -95.6759937116743,
        "alt_km": 438.0322381109172,
        "timestamp": "2025-12-13T18:50:03.172336+00:00",
        "meta_object_name": "STARLINK-35960",
        "meta_object_id": "2025-265R",
        "meta_epoch": "2025-12-13T06:00:02.000160",
        "meta_mean_motion": 15.45795099,
        "meta_eccentricity": 0.00011209,
        "meta_inclination": 43.0009,
        "meta_ra_of_asc_node": 50.9881,
        "meta_arg_of_pericenter": 280.848,
        "meta_mean_anomaly": 207.4024,
        "meta_ephemeris_type": 0,
        "meta_classification_type": "U",
        "meta_norad_cat_id": 66531,
        "meta_element_set_no": 999,
        "meta_rev_at_epoch": 507,
        "meta_bstar": -0.046668807,
        "meta_mean_motion_dot": -0.0205812,
        "meta_mean_motion_ddot": 0,
        "tle_line1": "1 66531U 25265R   25347.25002315 -.02058120  00000+0 -46669-1 0  9991",
        "tle_line2": "2 66531  43.0009  50.9881 0001120 280.8480 207.4024 15.45795099  5079"
      },
      "geometry": {
        "type": "Point",
        "coordinates": [
          -95.6759937116743,
          -28.963152768088847
        ]
      }
    }
  ]
}